ORBCOMM FM115           
1 41186U 15081H   25066.66032226  .00001420  00000+0  31383-3 0  9998
2 41186  46.9981 162.3245 0001688 276.0213  84.0482 14.62174045492911
ORBCOMM FM108           
1 41187U 15081J   25066.75309499  .00001552  00000+0  37207-3 0  9995
2 41187  47.0040 225.9143 0003304 208.6842 151.3862 14.57870931491997
ORBCOMM FM117           
1 41188U 15081K   25067.47321658  .00001248  00000+0  30646-3 0  9999
2 41188  47.0002 221.3108 0003801 218.6406 141.4208 14.57871620492199
ORBCOMM FM116           
1 41189U 15081L   25066.77872856  .00001555  00000+0  37281-3 0  9996
2 41189  47.0028 314.4521 0001833 297.6613  62.4086 14.57864452490853
