<?xml version="1.0" encoding="UTF-8"?>
<ndm xmlns:xsi="http://www.w3.org/2001/XMLSchema-instance" xsi:noNamespaceSchemaLocation="https://sanaregistry.org/r/ndmxml_unqualified/ndmxml-2.0.0-master-2.0.xsd">
<omm id="CCSDS_OMM_VERS" version="2.0">
<header><CREATION_DATE/><ORIGINATOR/></header><body><segment><metadata><OBJECT_NAME>ORBCOMM FM115</OBJECT_NAME><OBJECT_ID>2015-081H</OBJECT_ID><CENTER_NAME>EARTH</CENTER_NAME><REF_FRAME>TEME</REF_FRAME><TIME_SYSTEM>UTC</TIME_SYSTEM><MEAN_ELEMENT_THEORY>SGP4</MEAN_ELEMENT_THEORY></metadata><data><meanElements><EPOCH>2025-03-07T15:50:51.843264</EPOCH><MEAN_MOTION>14.62174045</MEAN_MOTION><ECCENTRICITY>.0001688</ECCENTRICITY><INCLINATION>46.9981</INCLINATION><RA_OF_ASC_NODE>162.3245</RA_OF_ASC_NODE><ARG_OF_PERICENTER>276.0213</ARG_OF_PERICENTER><MEAN_ANOMALY>84.0482</MEAN_ANOMALY></meanElements><tleParameters><EPHEMERIS_TYPE>0</EPHEMERIS_TYPE><CLASSIFICATION_TYPE>U</CLASSIFICATION_TYPE><NORAD_CAT_ID>41186</NORAD_CAT_ID><ELEMENT_SET_NO>999</ELEMENT_SET_NO><REV_AT_EPOCH>49291</REV_AT_EPOCH><BSTAR>.31383E-3</BSTAR><MEAN_MOTION_DOT>.142E-4</MEAN_MOTION_DOT><MEAN_MOTION_DDOT>0</MEAN_MOTION_DDOT></tleParameters></data></segment></body></omm>
<omm id="CCSDS_OMM_VERS" version="2.0">
<header><CREATION_DATE/><ORIGINATOR/></header><body><segment><metadata><OBJECT_NAME>ORBCOMM FM108</OBJECT_NAME><OBJECT_ID>2015-081J</OBJECT_ID><CENTER_NAME>EARTH</CENTER_NAME><REF_FRAME>TEME</REF_FRAME><TIME_SYSTEM>UTC</TIME_SYSTEM><MEAN_ELEMENT_THEORY>SGP4</MEAN_ELEMENT_THEORY></metadata><data><meanElements><EPOCH>2025-03-07T18:04:27.407136</EPOCH><MEAN_MOTION>14.57870931</MEAN_MOTION><ECCENTRICITY>.0003304</ECCENTRICITY><INCLINATION>47.0040</INCLINATION><RA_OF_ASC_NODE>225.9143</RA_OF_ASC_NODE><ARG_OF_PERICENTER>208.6842</ARG_OF_PERICENTER><MEAN_ANOMALY>151.3862</MEAN_ANOMALY></meanElements><tleParameters><EPHEMERIS_TYPE>0</EPHEMERIS_TYPE><CLASSIFICATION_TYPE>U</CLASSIFICATION_TYPE><NORAD_CAT_ID>41187</NORAD_CAT_ID><ELEMENT_SET_NO>999</ELEMENT_SET_NO><REV_AT_EPOCH>49199</REV_AT_EPOCH><BSTAR>.37207E-3</BSTAR><MEAN_MOTION_DOT>.1552E-4</MEAN_MOTION_DOT><MEAN_MOTION_DDOT>0</MEAN_MOTION_DDOT></tleParameters></data></segment></body></omm>
<omm id="CCSDS_OMM_VERS" version="2.0">
<header><CREATION_DATE/><ORIGINATOR/></header><body><segment><metadata><OBJECT_NAME>ORBCOMM FM117</OBJECT_NAME><OBJECT_ID>2015-081K</OBJECT_ID><CENTER_NAME>EARTH</CENTER_NAME><REF_FRAME>TEME</REF_FRAME><TIME_SYSTEM>UTC</TIME_SYSTEM><MEAN_ELEMENT_THEORY>SGP4</MEAN_ELEMENT_THEORY></metadata><data><meanElements><EPOCH>2025-03-08T11:21:25.912512</EPOCH><MEAN_MOTION>14.57871620</MEAN_MOTION><ECCENTRICITY>.0003801</ECCENTRICITY><INCLINATION>47.0002</INCLINATION><RA_OF_ASC_NODE>221.3108</RA_OF_ASC_NODE><ARG_OF_PERICENTER>218.6406</ARG_OF_PERICENTER><MEAN_ANOMALY>141.4208</MEAN_ANOMALY></meanElements><tleParameters><EPHEMERIS_TYPE>0</EPHEMERIS_TYPE><CLASSIFICATION_TYPE>U</CLASSIFICATION_TYPE><NORAD_CAT_ID>41188</NORAD_CAT_ID><ELEMENT_SET_NO>999</ELEMENT_SET_NO><REV_AT_EPOCH>49219</REV_AT_EPOCH><BSTAR>.30646E-3</BSTAR><MEAN_MOTION_DOT>.1248E-4</MEAN_MOTION_DOT><MEAN_MOTION_DDOT>0</MEAN_MOTION_DDOT></tleParameters></data></segment></body></omm>
<omm id="CCSDS_OMM_VERS" version="2.0">
<header><CREATION_DATE/><ORIGINATOR/></header><body><segment><metadata><OBJECT_NAME>ORBCOMM FM116</OBJECT_NAME><OBJECT_ID>2015-081L</OBJECT_ID><CENTER_NAME>EARTH</CENTER_NAME><REF_FRAME>TEME</REF_FRAME><TIME_SYSTEM>UTC</TIME_SYSTEM><MEAN_ELEMENT_THEORY>SGP4</MEAN_ELEMENT_THEORY></metadata><data><meanElements><EPOCH>2025-03-07T18:41:22.147584</EPOCH><MEAN_MOTION>14.57864452</MEAN_MOTION><ECCENTRICITY>.0001833</ECCENTRICITY><INCLINATION>47.0028</INCLINATION><RA_OF_ASC_NODE>314.4521</RA_OF_ASC_NODE><ARG_OF_PERICENTER>297.6613</ARG_OF_PERICENTER><MEAN_ANOMALY>62.4086</MEAN_ANOMALY></meanElements><tleParameters><EPHEMERIS_TYPE>0</EPHEMERIS_TYPE><CLASSIFICATION_TYPE>U</CLASSIFICATION_TYPE><NORAD_CAT_ID>41189</NORAD_CAT_ID><ELEMENT_SET_NO>999</ELEMENT_SET_NO><REV_AT_EPOCH>49085</REV_AT_EPOCH><BSTAR>.37281E-3</BSTAR><MEAN_MOTION_DOT>.1555E-4</MEAN_MOTION_DOT><MEAN_MOTION_DDOT>0</MEAN_MOTION_DDOT></tleParameters></data></segment></body></omm>
</ndm>
